[{"OBJECT_NAME":"STARLINK-35937","OBJECT_ID":"2025-265B","EPOCH":"2026-03-09T22:02:47.230944","MEAN_MOTION":15.27611932,"ECCENTRICITY":0.00021615,"INCLINATION":43.0011,"RA_OF_ASC_NODE":277.0546,"ARG_OF_PERICENTER":258.4803,"MEAN_ANOMALY":101.5806,"EPHEMERIS_TYPE":0,"CLASSIFICATION_TYPE":"U","NORAD_CAT_ID":66517,"ELEMENT_SET_NO":999,"REV_AT_EPOCH":1714,"BSTAR":0.0010729742,"MEAN_MOTION_DOT":0.00029411,"MEAN_MOTION_DDOT":0},{"OBJECT_NAME":"CZ-6A DEB","OBJECT_ID":"2022-151EM","EPOCH":"2026-03-09T21:12:10.844640","MEAN_MOTION":15.1479521,"ECCENTRICITY":0.00732342,"INCLINATION":98.809,"RA_OF_ASC_NODE":212.6624,"ARG_OF_PERICENTER":10.5605,"MEAN_ANOMALY":349.714,"EPHEMERIS_TYPE":0,"CLASSIFICATION_TYPE":"U","NORAD_CAT_ID":54413,"ELEMENT_SET_NO":999,"REV_AT_EPOCH":17915,"BSTAR":0.0020661814,"MEAN_MOTION_DOT":0.00041137,"MEAN_MOTION_DDOT":0}]
